[{"OBJECT_NAME":"STARLINK-36729","OBJECT_ID":"2026-036B","EPOCH":"2026-03-08T13:47:34.663200","MEAN_MOTION":15.82096097,"ECCENTRICITY":0.00017085,"INCLINATION":42.9981,"RA_OF_ASC_NODE":256.631,"ARG_OF_PERICENTER":264.3096,"MEAN_ANOMALY":95.7581,"EPHEMERIS_TYPE":0,"CLASSIFICATION_TYPE":"U","NORAD_CAT_ID":67905,"ELEMENT_SET_NO":999,"REV_AT_EPOCH":349,"BSTAR":0.0012541455,"MEAN_MOTION_DOT":0.00273065,"MEAN_MOTION_DDOT":0},{"OBJECT_NAME":"STARLINK-36763","OBJECT_ID":"2026-036C","EPOCH":"2026-03-08T13:46:29.453664","MEAN_MOTION":15.82043578,"ECCENTRICITY":0.00017075,"INCLINATION":42.9985,"RA_OF_ASC_NODE":256.6248,"ARG_OF_PERICENTER":276.4168,"MEAN_ANOMALY":83.6509,"EPHEMERIS_TYPE":0,"CLASSIFICATION_TYPE":"U","NORAD_CAT_ID":67906,"ELEMENT_SET_NO":999,"REV_AT_EPOCH":349,"BSTAR":0.00028197077,"MEAN_MOTION_DOT":0.00059325,"MEAN_MOTION_DDOT":0},{"OBJECT_NAME":"STARLINK-36742","OBJECT_ID":"2026-036D","EPOCH":"2026-03-08T13:45:25.257600","MEAN_MOTION":15.81978128,"ECCENTRICITY":0.00021117,"INCLINATION":42.9986,"RA_OF_ASC_NODE":256.6185,"ARG_OF_PERICENTER":231.1154,"MEAN_ANOMALY":128.953,"EPHEMERIS_TYPE":0,"CLASSIFICATION_TYPE":"U","NORAD_CAT_ID":67907,"ELEMENT_SET_NO":999,"REV_AT_EPOCH":349,"BSTAR":0.0016511521,"MEAN_MOTION_DOT":0.00361416,"MEAN_MOTION_DDOT":0},{"OBJECT_NAME":"STARLINK-36827","OBJECT_ID":"2026-036E","EPOCH":"2026-03-08T13:44:20.952672","MEAN_MOTION":15.8199204,"ECCENTRICITY":0.00057306,"INCLINATION":42.9984,"RA_OF_ASC_NODE":256.6129,"ARG_OF_PERICENTER":300.9381,"MEAN_ANOMALY":59.0927,"EPHEMERIS_TYPE":0,"CLASSIFICATION_TYPE":"U","NORAD_CAT_ID":67908,"ELEMENT_SET_NO":999,"REV_AT_EPOCH":349,"BSTAR":0.0019901082,"MEAN_MOTION_DOT":0.00440252,"MEAN_MOTION_DDOT":0},{"OBJECT_NAME":"STARLINK-36822","OBJECT_ID":"2026-036F","EPOCH":"2026-03-08T13:43:15.900384","MEAN_MOTION":15.82097576,"ECCENTRICITY":0.00013513,"INCLINATION":42.9985,"RA_OF_ASC_NODE":256.6066,"ARG_OF_PERICENTER":241.8985,"MEAN_ANOMALY":118.1751,"EPHEMERIS_TYPE":0,"CLASSIFICATION_TYPE":"U","NORAD_CAT_ID":67909,"ELEMENT_SET_NO":999,"REV_AT_EPOCH":349,"BSTAR":0.0011553474,"MEAN_MOTION_DOT":0.00250876,"MEAN_MOTION_DDOT":0},{"OBJECT_NAME":"STARLINK-36847","OBJECT_ID":"2026-036G","EPOCH":"2026-03-08T13:42:10.720224","MEAN_MOTION":15.82080127,"ECCENTRICITY":0.00014938,"INCLINATION":42.9984,"RA_OF_ASC_NODE":256.6007,"ARG_OF_PERICENTER":252.1801,"MEAN_ANOMALY":107.8908,"EPHEMERIS_TYPE":0,"CLASSIFICATION_TYPE":"U","NORAD_CAT_ID":67910,"ELEMENT_SET_NO":999,"REV_AT_EPOCH":349,"BSTAR":0.0015529205,"MEAN_MOTION_DOT":0.00340676,"MEAN_MOTION_DDOT":0},{"OBJECT_NAME":"STARLINK-36736","OBJECT_ID":"2026-036H","EPOCH":"2026-03-08T13:41:04.985376","MEAN_MOTION":15.82448066,"ECCENTRICITY":0.00029549,"INCLINATION":42.9986,"RA_OF_ASC_NODE":256.5938,"ARG_OF_PERICENTER":270.4442,"MEAN_ANOMALY":89.6092,"EPHEMERIS_TYPE":0,"CLASSIFICATION_TYPE":"U","NORAD_CAT_ID":67911,"ELEMENT_SET_NO":999,"REV_AT_EPOCH":349,"BSTAR":0.0037786018,"MEAN_MOTION_DOT":0.00901425,"MEAN_MOTION_DDOT":0},{"OBJECT_NAME":"STARLINK-36676","OBJECT_ID":"2026-036J","EPOCH":"2026-03-08T13:39:59.832864","MEAN_MOTION":15.82201915,"ECCENTRICITY":0.00014512,"INCLINATION":42.9983,"RA_OF_ASC_NODE":256.588,"ARG_OF_PERICENTER":279.9773,"MEAN_ANOMALY":80.0935,"EPHEMERIS_TYPE":0,"CLASSIFICATION_TYPE":"U","NORAD_CAT_ID":67912,"ELEMENT_SET_NO":999,"REV_AT_EPOCH":349,"BSTAR":0.0020132996,"MEAN_MOTION_DOT":0.00450094,"MEAN_MOTION_DDOT":0},{"OBJECT_NAME":"STARLINK-36690","OBJECT_ID":"2026-036K","EPOCH":"2026-03-08T13:38:54.507552","MEAN_MOTION":15.82220509,"ECCENTRICITY":0.00016979,"INCLINATION":42.9983,"RA_OF_ASC_NODE":256.582,"ARG_OF_PERICENTER":221.3909,"MEAN_ANOMALY":138.6835,"EPHEMERIS_TYPE":0,"CLASSIFICATION_TYPE":"U","NORAD_CAT_ID":67913,"ELEMENT_SET_NO":999,"REV_AT_EPOCH":349,"BSTAR":0.0017240998,"MEAN_MOTION_DOT":0.00382654,"MEAN_MOTION_DDOT":0},{"OBJECT_NAME":"STARLINK-36724","OBJECT_ID":"2026-036L","EPOCH":"2026-03-08T13:36:47.272320","MEAN_MOTION":15.82141098,"ECCENTRICITY":0.00030082,"INCLINATION":42.9988,"RA_OF_ASC_NODE":256.5691,"ARG_OF_PERICENTER":299.9663,"MEAN_ANOMALY":60.091,"EPHEMERIS_TYPE":0,"CLASSIFICATION_TYPE":"U","NORAD_CAT_ID":67914,"ELEMENT_SET_NO":999,"REV_AT_EPOCH":349,"BSTAR":0.0017282694,"MEAN_MOTION_DOT":0.00382152,"MEAN_MOTION_DDOT":0},{"OBJECT_NAME":"STARLINK-36723","OBJECT_ID":"2026-036M","EPOCH":"2026-03-08T13:37:52.096512","MEAN_MOTION":15.82384158,"ECCENTRICITY":0.00034612,"INCLINATION":42.9984,"RA_OF_ASC_NODE":256.5756,"ARG_OF_PERICENTER":262.3522,"MEAN_ANOMALY":97.6957,"EPHEMERIS_TYPE":0,"CLASSIFICATION_TYPE":"U","NORAD_CAT_ID":67915,"ELEMENT_SET_NO":999,"REV_AT_EPOCH":349,"BSTAR":0.0036437145,"MEAN_MOTION_DOT":0.00862675,"MEAN_MOTION_DDOT":0},{"OBJECT_NAME":"STARLINK-36721","OBJECT_ID":"2026-036N","EPOCH":"2026-03-08T13:35:41.111520","MEAN_MOTION":15.82182998,"ECCENTRICITY":0.0001533,"INCLINATION":42.9986,"RA_OF_ASC_NODE":256.5635,"ARG_OF_PERICENTER":277.1054,"MEAN_ANOMALY":82.9644,"EPHEMERIS_TYPE":0,"CLASSIFICATION_TYPE":"U","NORAD_CAT_ID":67916,"ELEMENT_SET_NO":999,"REV_AT_EPOCH":349,"BSTAR":0.0019167081,"MEAN_MOTION_DOT":0.00426931,"MEAN_MOTION_DDOT":0},{"OBJECT_NAME":"STARLINK-36722","OBJECT_ID":"2026-036P","EPOCH":"2026-03-08T13:34:37.387200","MEAN_MOTION":15.82118839,"ECCENTRICITY":0.0001516,"INCLINATION":42.9984,"RA_OF_ASC_NODE":256.5566,"ARG_OF_PERICENTER":269.5088,"MEAN_ANOMALY":90.561,"EPHEMERIS_TYPE":0,"CLASSIFICATION_TYPE":"U","NORAD_CAT_ID":67917,"ELEMENT_SET_NO":999,"REV_AT_EPOCH":349,"BSTAR":0.0013754137,"MEAN_MOTION_DOT":0.00300812,"MEAN_MOTION_DDOT":0},{"OBJECT_NAME":"STARLINK-36341","OBJECT_ID":"2026-036Q","EPOCH":"2026-03-08T13:32:28.383360","MEAN_MOTION":15.82084607,"ECCENTRICITY":0.00013235,"INCLINATION":42.9986,"RA_OF_ASC_NODE":256.5441,"ARG_OF_PERICENTER":276.1327,"MEAN_ANOMALY":83.9394,"EPHEMERIS_TYPE":0,"CLASSIFICATION_TYPE":"U","NORAD_CAT_ID":67918,"ELEMENT_SET_NO":999,"REV_AT_EPOCH":349,"BSTAR":0.0018807813,"MEAN_MOTION_DOT":0.00416492,"MEAN_MOTION_DDOT":0},{"OBJECT_NAME":"STARLINK-36663","OBJECT_ID":"2026-036R","EPOCH":"2026-03-08T13:33:32.837760","MEAN_MOTION":15.82071298,"ECCENTRICITY":0.00016171,"INCLINATION":42.9984,"RA_OF_ASC_NODE":256.5513,"ARG_OF_PERICENTER":246.6239,"MEAN_ANOMALY":113.4463,"EPHEMERIS_TYPE":0,"CLASSIFICATION_TYPE":"U","NORAD_CAT_ID":67919,"ELEMENT_SET_NO":999,"REV_AT_EPOCH":349,"BSTAR":0.0016180137,"MEAN_MOTION_DOT":0.00355446,"MEAN_MOTION_DDOT":0},{"OBJECT_NAME":"STARLINK-36375","OBJECT_ID":"2026-036S","EPOCH":"2026-03-08T13:31:23.391552","MEAN_MOTION":15.82084995,"ECCENTRICITY":0.00022609,"INCLINATION":42.9987,"RA_OF_ASC_NODE":256.5382,"ARG_OF_PERICENTER":256.985,"MEAN_ANOMALY":103.0769,"EPHEMERIS_TYPE":0,"CLASSIFICATION_TYPE":"U","NORAD_CAT_ID":67920,"ELEMENT_SET_NO":999,"REV_AT_EPOCH":349,"BSTAR":0.0014150648,"MEAN_MOTION_DOT":0.00309323,"MEAN_MOTION_DDOT":0}]
