STARLINK-36729          
1 67905U 26036B   26067.57470675  .00273065  00000+0  12541-2 0  9993
2 67905  42.9981 256.6310 0001708 264.3096  95.7581 15.82096097  3499
STARLINK-36763          
1 67906U 26036C   26067.57395201  .00059325  00000+0  28197-3 0  9991
2 67906  42.9985 256.6248 0001707 276.4168  83.6509 15.82043578  3499
STARLINK-36742          
1 67907U 26036D   26067.57320900  .00361416  00000+0  16512-2 0  9990
2 67907  42.9986 256.6185 0002111 231.1154 128.9530 15.81978128  3498
STARLINK-36827          
1 67908U 26036E   26067.57246473  .00440252  00000+0  19901-2 0  9994
2 67908  42.9984 256.6129 0005730 300.9381  59.0927 15.81992040  3495
STARLINK-36822          
1 67909U 26036F   26067.57171181  .00250876  00000+0  11553-2 0  9994
2 67909  42.9985 256.6066 0001351 241.8985 118.1751 15.82097576  3498
STARLINK-36847          
1 67910U 26036G   26067.57095741  .00340676  00000+0  15529-2 0  9998
2 67910  42.9984 256.6007 0001493 252.1801 107.8908 15.82080127  3496
STARLINK-36736          
1 67911U 26036H   26067.57019659  .00901425  00000+0  37786-2 0  9997
2 67911  42.9986 256.5938 0002954 270.4442  89.6092 15.82448066  3499
STARLINK-36676          
1 67912U 26036J   26067.56944251  .00450094  00000+0  20133-2 0  9991
2 67912  42.9983 256.5880 0001451 279.9773  80.0935 15.82201915  3496
STARLINK-36690          
1 67913U 26036K   26067.56868643  .00382654  00000+0  17241-2 0  9994
2 67913  42.9983 256.5820 0001697 221.3909 138.6835 15.82220509  3494
STARLINK-36724          
1 67914U 26036L   26067.56721380  .00382152  00000+0  17283-2 0  9990
2 67914  42.9988 256.5691 0003008 299.9663  60.0910 15.82141098  3499
STARLINK-36723          
1 67915U 26036M   26067.56796408  .00862675  00000+0  36437-2 0  9999
2 67915  42.9984 256.5756 0003461 262.3522  97.6957 15.82384158  3492
STARLINK-36721          
1 67916U 26036N   26067.56644805  .00426931  00000+0  19167-2 0  9995
2 67916  42.9986 256.5635 0001533 277.1054  82.9644 15.82182998  3491
STARLINK-36722          
1 67917U 26036P   26067.56571050  .00300812  00000+0  13754-2 0  9992
2 67917  42.9984 256.5566 0001516 269.5088  90.5610 15.82118839  3497
STARLINK-36341          
1 67918U 26036Q   26067.56421740  .00416492  00000+0  18808-2 0  9990
2 67918  42.9986 256.5441 0001323 276.1327  83.9394 15.82084607  3498
STARLINK-36663          
1 67919U 26036R   26067.56496340  .00355446  00000+0  16180-2 0  9991
2 67919  42.9984 256.5513 0001617 246.6239 113.4463 15.82071298  3495
STARLINK-36375          
1 67920U 26036S   26067.56346518  .00309323  00000+0  14151-2 0  9993
2 67920  42.9987 256.5382 0002260 256.9850 103.0769 15.82084995  3494
